STARLINK-31836          
1 59724U 24088S   26068.51447144 -.00000143  00000+0  73059-5 0  9998
2 59724  53.1605 140.8406 0001288 114.5966 245.5170 15.30181197103658
TRANSPORTER-12 OBJECT AZ
1 62656U 25009AZ  26068.71026235  .00016057  00000+0  54903-3 0  9991
2 62656  97.3981 151.9913 0000987  45.3581 314.7740 15.30349724 63792
