[{"OBJECT_NAME":"STARLINK-31836","OBJECT_ID":"2024-088S","EPOCH":"2026-03-09T12:20:50.332416","MEAN_MOTION":15.30181197,"ECCENTRICITY":0.00012888,"INCLINATION":53.1605,"RA_OF_ASC_NODE":140.8406,"ARG_OF_PERICENTER":114.5966,"MEAN_ANOMALY":245.517,"EPHEMERIS_TYPE":0,"CLASSIFICATION_TYPE":"U","NORAD_CAT_ID":59724,"ELEMENT_SET_NO":999,"REV_AT_EPOCH":10365,"BSTAR":7.305874e-6,"MEAN_MOTION_DOT":-1.43e-6,"MEAN_MOTION_DDOT":0},{"OBJECT_NAME":"TRANSPORTER-12 OBJECT AZ","OBJECT_ID":"2025-009AZ","EPOCH":"2026-03-09T17:02:46.667040","MEAN_MOTION":15.30349724,"ECCENTRICITY":9.87e-5,"INCLINATION":97.3981,"RA_OF_ASC_NODE":151.9913,"ARG_OF_PERICENTER":45.3581,"MEAN_ANOMALY":314.774,"EPHEMERIS_TYPE":0,"CLASSIFICATION_TYPE":"U","NORAD_CAT_ID":62656,"ELEMENT_SET_NO":999,"REV_AT_EPOCH":6379,"BSTAR":0.00054902545,"MEAN_MOTION_DOT":0.00016057,"MEAN_MOTION_DDOT":0}]
